Place_ID,Place_Name,Latitude,Longitude
0,Divyanagar,27.360381,93.628554
1,Devwadi,18.043837,81.289973
2,Chiragpatti,25.485957,92.692556
3,Omkarnagar,20.780373,73.559778
4,Varunpatti,26.95188,72.340186
5,Siddharthpur,20.861246,78.874129
6,Kailashpura,21.036671,71.603642
7,Arunganj,27.44303,92.845107
8,Govindkheda,15.691096,79.388534
9,Sahilgarh,26.534052,71.138422
10,Arjunabad,23.258311,86.861588
11,Namitakheda,15.841317,76.181731
12,Veenapur,21.759578,72.551232
13,Sameerkheda,16.067215,79.193361
14,Kamalpur,9.966053,78.612763
15,Silpaabad,16.194011,73.793263
16,Bhuvanabad,25.361699,80.737053
17,Jagannagar,24.323452,78.161103
18,Narayanwadi,21.464657,82.386339
19,Silpapura,20.973465,84.957649
20,Sunilgarh,22.319524,77.698622
21,Preetiganj,23.294629,68.807474
22,Richapura,34.650301,77.262459
23,Kalyankheda,29.489872,77.22589
24,Satishpatti,10.160525,78.970792
25,Vikrampura,34.191385,75.609755
26,Yogeshpatti,16.318596,73.614063
27,Shankarabad,27.271783,82.980931
28,Pallavikheda,21.404092,76.773095
29,Sumanpur,25.551878,84.458015
30,Shankarkheda,22.607582,74.708425
31,Jagangarh,24.671262,93.90485
32,Avanikheda,19.615301,78.986701
33,Vaibhavwadi,11.569982,77.056795
34,Yashabad,16.537336,79.574486
35,Rohitabad,14.580182,74.832476
36,Umapur,22.407408,78.969475
37,Rashmipatti,25.794603,91.237068
38,Kailashabad,22.758738,71.743609
39,Harshapura,25.711299,79.316328
40,Chiraggarh,21.098645,71.901273
41,Pallaviganj,17.950086,74.706285
42,Devkheda,18.291066,77.575499
43,Salilwadi,34.535004,76.650009
44,Anandpura,25.521709,83.778664
45,Richanagar,24.992852,71.669574
46,Amannagar,24.2995,75.335389
47,Nilimagarh,23.796104,84.752795
48,Sarveshgarh,26.233371,70.32773
49,Sarveshganj,26.614743,91.081219
50,Prakashganj,17.855378,75.853812
51,Deepakabad,28.282355,79.262838
52,Sagarwadi,18.202497,82.166029
53,Aaryaganj,20.084082,81.536681
54,Amanpur,28.423154,72.3681
55,Parvatiwadi,27.718033,75.860577
56,Manishpur,27.708721,94.400759
57,Tarunabad,25.621294,91.37621
58,Pranavkheda,23.955484,76.785002
59,Sandeepgarh,21.968063,72.16335
60,Shrutikheda,19.672961,76.886621
61,Vikramabad,13.674145,80.032489
62,Jaigarh,8.494267,77.259497
63,Ramanpatti,23.606144,84.979711
64,Rashmiganj,26.078455,87.261482
65,Parvatiganj,25.324716,80.716655
66,Ilapatti,22.30819,82.899412
67,Madhavgarh,31.354776,77.181205
68,Nirajpur,16.997755,76.158383
69,Ushanagar,28.653421,77.16436
70,Shaileshganj,27.589702,88.461951
71,Nikhilpur,22.445503,73.995604
72,Yogeshabad,21.450123,76.504406
73,Swatikheda,31.531825,75.041717
74,Trishaganj,22.85743,78.75772
75,Sunilabad,21.696022,77.971314
76,Rahulnagar,24.539176,76.972175
77,Parvatikheda,27.522007,76.080118
78,Ishaanwadi,28.025891,94.980558
79,Vineetkheda,23.244743,80.978729
80,Vipinpatti,28.398403,76.388608
81,Jainagar,10.999351,78.149709
82,Tanvipur,32.75767,75.983484
83,Kiranpura,9.381697,78.720544
84,Madhavpura,33.055485,76.277154
85,Jayantabad,33.399767,77.510427
86,Deepakpur,16.66575,74.972337
87,Jyotipur,23.503408,73.273861
88,Bhuvannagar,19.81758,83.174442
89,Girishgarh,18.709342,76.807035
90,Adityaganj,21.43028,83.036469
91,Vaibhavgarh,14.383201,77.424214
92,Nirajnagar,34.007989,77.673436
93,Dilippur,27.7652,81.603829
94,Nilimapura,25.157448,71.020522
95,Sandeepkot,24.302909,84.881601
96,Priyagarh,33.677317,75.361992
97,Bimalganj,30.663731,78.604404
98,Richaganj,19.277068,74.216194
99,Sunilpatti,28.153909,72.678664
100,Vishalkot,26.397631,76.585891
101,Devabad,24.889875,75.343887
102,Prakashpatti,26.797022,79.651141
103,Neelnagar,28.679319,73.854743
104,Kirankheda,16.569898,79.604695
105,Shantanupur,18.708806,79.078042
106,Alokganj,26.995047,72.599585
107,Neelpura,20.828747,83.454945
108,Jayantpatti,15.874986,75.306763
109,Maheshabad,25.060648,93.241633
110,Sumangarh,18.056806,76.62451
111,Rashmipur,31.614276,75.672603
112,Devpura,20.299334,80.177115
113,Madhuriabad,22.578371,82.505719
114,Vineetpura,23.282193,72.620906
115,Anandgarh,24.814534,77.395274
116,Sahilpur,22.639434,79.780651
117,Vedganj,8.895002,77.995382
118,Amanpatti,25.230465,91.689837
119,Yashkot,26.810524,73.033751
120,Indirawadi,28.851011,94.652903
121,Darshanganj,26.294206,83.739115
122,Maheshganj,25.925506,80.350402
123,Hemantpur,20.019493,80.013554
124,Bharatkheda,26.508004,70.449077
125,Indirapura,11.421136,75.993382
126,Preetipatti,22.930223,73.79807
127,Amritaganj,25.309473,75.387486
128,Deepakwadi,20.130548,86.121329
129,Narayankheda,21.439474,84.13612
130,Maheshwadi,14.432331,77.775464
131,Sangeetapura,20.48742,82.203451
132,Lakshmigarh,24.182119,75.469141
133,Jagankot,30.746368,74.291787
134,Bhuvankot,30.217303,77.836481
135,Girishkheda,32.708929,75.85675
136,Pallaviabad,19.547212,73.007178
137,Siddharthkheda,27.040716,82.812761
138,Deepakgarh,20.623121,77.298352
139,Sameerkot,29.930678,78.356601
140,Santoshkot,28.828249,77.395658
141,Neelkot,22.840721,92.556341
142,Ravipura,13.718669,78.796891
143,Chiragganj,23.476373,92.661735
144,Sunilnagar,26.769395,84.726938
145,Shivpur,25.903224,94.714075
146,Harinagar,17.75743,77.360944
147,Vedkheda,15.02008,78.478469
148,Nikhilwadi,16.706954,79.805246
149,Jaganwadi,21.549246,82.748482
150,Siddharthabad,18.806317,79.18463
151,Rajganj,24.278254,93.85666
152,Ilagarh,16.858891,79.509849
153,Jagankheda,20.640495,84.842978
154,Prakashnagar,18.26621,78.126676
155,Vipinganj,28.094869,72.69604
156,Shaileshpatti,23.51772,74.161282
157,Vipinwadi,31.052589,75.457472
158,Yogeshnagar,26.549591,85.733442
159,Arjunnagar,23.517595,88.242927
160,Navinnagar,20.752884,82.681318
161,Hariwadi,22.770717,82.686547
162,Vineetkot,24.419228,73.347308
163,Madhurikot,10.349939,78.995161
164,Rohitwadi,23.566797,82.23839
165,Bharatpur,19.379576,78.859762
166,Sarveshkot,16.132389,76.272809
167,Rakeshpur,27.153799,81.691668
168,Vedpura,22.364556,81.632773
169,Pallaviwadi,10.227381,78.078625
170,Meerawadi,30.544204,79.917962
171,Pranavkot,27.659241,93.891674
172,Shankargarh,27.573497,97.050306
173,Indiraganj,18.487267,81.47187
174,Siddharthpura,25.324062,83.914578
175,Bhaveshabad,29.454519,79.111406
176,Prakashabad,21.662665,70.92026
177,Varungarh,21.100622,82.374922
178,Raninagar,25.655546,74.56718
179,Dilipkot,25.664897,80.618472
180,Avanipatti,25.347895,73.679018
181,Devkot,22.568263,76.482345
182,Madhavpur,16.261811,75.941308
183,Vaibhavpatti,14.338818,79.527019
184,Lalitpur,15.248226,77.162951
185,Tanviganj,16.108654,80.940433
186,Amritawadi,29.237197,74.809879
187,Abhinavkot,25.809299,82.727092
188,Nishagarh,21.567574,82.100472
189,Rohitkot,23.217895,84.850024
190,Sonalkheda,15.113594,79.817236
191,Kamalwadi,15.34531,74.787485
192,Yashgarh,19.731554,75.67435
193,Ranipatti,29.597671,75.324852
194,Satishkot,21.142573,80.070745
195,Arjunpatti,28.286051,75.10846
196,Indirapur,14.732546,75.962608
197,Rashmikot,33.637432,74.05233
198,Pranavpatti,25.122275,76.919737
199,Vishalgarh,28.244962,96.044014
200,Vineetwadi,29.914346,79.61896
201,Anandwadi,20.986113,86.967537
202,Ektaganj,29.43797,76.784329
203,Veenakot,26.250987,86.004518
204,Seemanagar,32.145525,78.203603
205,Girishpatti,32.188563,75.463223
206,Manishnagar,14.048375,75.103145
207,Amritakheda,20.290004,82.068226
208,Veenapatti,22.360967,86.974911
209,Darshangarh,17.338208,81.199501
210,Shaileshpura,11.845556,75.556656
211,Navinkheda,13.64544,76.976116
212,Priyakheda,26.715133,88.639541
213,Souravpatti,20.045526,74.39792
214,Nikhilabad,31.137034,74.842064
215,Saritawadi,25.145184,82.765248
216,Rohitkheda,22.547328,82.542131
217,Paragwadi,21.204608,83.263771
218,Vishalpur,23.726278,68.648381
219,Sameerpura,14.610009,76.348231
220,Anilabad,23.078679,77.374633
221,Manishgarh,25.628767,82.955931
222,Namitapur,11.095097,77.67166
223,Udaypura,26.176587,73.026675
224,Salilgarh,20.151806,86.010668
225,Bimalpatti,26.293936,73.806172
226,Satishpura,17.726266,82.101447
227,Harikheda,25.838141,80.951218
228,Arjunpur,19.274335,81.426245
229,Veenakheda,24.977119,93.362302
230,Omkarpur,23.779314,80.288518
231,Pranavganj,22.010217,81.957444
232,Laxmanpura,12.452523,78.829662
233,Sarveshabad,31.592049,77.803744
234,Ektagarh,11.453462,76.339204
235,Ilapura,22.353873,80.200868
236,Shaileshpur,26.047129,78.972614
237,Shankarkot,18.707807,81.476206
238,Divyaabad,22.598213,79.097134
239,Satishpur,19.484014,78.099486
240,Ilawadi,25.50566,91.481234
241,Prakashpur,23.070262,81.125297
242,Aloknagar,21.845709,75.710978
243,Saritakot,21.859441,75.500189
244,Neelpur,26.865894,73.727373
245,Jaipatti,17.417997,78.41343
246,Ashokkot,17.772841,81.777315
247,Avaniabad,12.111584,77.999952
248,Sonalnagar,15.27966,74.93839
249,Vaibhavganj,12.969868,76.1204
250,Kamalganj,17.136909,79.318693
251,Rameshwadi,29.051589,73.785735
252,Alokkot,19.593064,79.547421
253,Amangarh,21.801437,77.584934
254,Preetigarh,23.606667,78.31405
255,Priyapur,22.484638,71.971867
256,Jyotipura,24.13079,92.408317
257,Sameergarh,17.597847,77.189268
258,Narayannagar,26.164791,77.92371
259,Maheshkot,28.819511,96.386773
260,Nikhilpura,22.790251,78.810185
261,Devpur,18.475281,75.370631
262,Kailashganj,25.351529,75.592703
263,Pranavwadi,27.387494,80.646552
264,Narayanpatti,24.937495,86.687175
265,Sanjaypura,23.332796,68.777781
266,Sanjaypatti,17.137362,73.362268
267,Dilipwadi,15.804737,73.71563
268,Sandeepnagar,15.999119,76.974998
269,Jaganabad,19.765614,83.445935
270,Ashokpatti,12.444813,76.365781
271,Souravabad,21.672666,85.01546
272,Jayantpur,31.051804,79.063814
273,Ektakot,27.143388,80.625205
274,Sahilnagar,23.662451,78.847286
275,Varunkheda,26.443075,94.466927
276,Mohanganj,20.652193,83.437744
277,Gauravpatti,24.481204,84.459755
278,Kiranpur,21.362195,83.921188
279,Sumannagar,29.298982,73.660795
280,Ashoknagar,28.168677,94.888376
281,Hemantpatti,25.484934,88.588357
282,Trishaabad,27.958981,92.709684
283,Sumanabad,21.198441,83.981646
284,Kamalkheda,24.160151,85.297697
285,Jaganganj,24.336208,85.614405
286,Ushawadi,24.829669,71.026304
287,Rohitpura,23.220474,83.458849
288,Trishagarh,25.789871,83.769386
289,Yogeshpura,23.116657,74.52882
290,Silpaganj,23.536088,72.609717
291,Rashmikheda,25.157373,86.75784
292,Paragganj,19.932173,83.006931
293,Udayganj,22.515585,75.227868
294,Preetiabad,15.851779,77.33883
295,Shaileshwadi,25.830468,82.767848
296,Tarunnagar,20.694751,75.607577
297,Hemantkheda,25.150792,84.155963
298,Divyapur,17.004294,81.134937
299,Swatipatti,18.944562,81.311259
300,Jaipur,21.566012,75.872036
301,Devgarh,22.328175,86.723566
302,Kamalpatti,32.616729,76.473909
303,Darshankot,26.42498,91.819591
304,Pranavpur,23.597415,79.59853
305,Sandeepganj,31.449314,74.500907
306,Madhurigarh,23.864293,69.795918
307,Ishaanganj,20.225628,86.243877
308,Girishabad,24.069082,81.939672
309,Sakshipura,24.088577,72.316088
310,Salilabad,27.114585,93.995359
311,Priyapatti,30.639128,79.400191
312,Souravpur,14.58825,75.150202
313,Mohanpur,19.171948,78.415355
314,Akashganj,23.300045,76.706912
315,Yashnagar,21.644924,73.318678
316,Prakashkot,28.1205,74.486464
317,Rahulabad,26.698094,88.787288
318,Amankot,26.732082,81.135202
319,Priyaabad,25.969012,78.398543
320,Sunilganj,25.346215,85.197542
321,Meeranagar,27.250187,94.071122
322,Harshagarh,24.489227,76.216506
323,Parvatipatti,30.645387,74.326148
324,Indiragarh,18.313076,79.055779
325,Bimalgarh,15.298605,74.229447
326,Rahulgarh,25.240814,73.843129
327,Jaiwadi,25.974093,79.136048
328,Chetankheda,22.682265,72.185874
329,Trishanagar,31.840058,75.055368
330,Vaibhavpura,9.915737,77.396819
331,Yashpur,30.712703,74.401375
332,Bharatganj,19.398349,76.24875
333,Parvatinagar,11.945233,77.844072
334,Yogeshpur,23.836466,76.244651
335,Harshapur,26.032216,81.856633
336,Sameerpatti,26.120459,92.447629
337,Vedpur,23.12446,69.511575
338,Shantanuwadi,27.690641,76.097768
339,Kiranpatti,18.684361,74.769829
340,Deepakganj,23.747608,82.011062
341,Rohitganj,24.651572,93.66127
342,Chetanwadi,14.030027,75.350736
343,Nishanagar,32.75768,75.193065
344,Neelkheda,21.602387,86.253681
345,Silpagarh,24.519268,75.8346
346,Jyotiganj,32.650739,75.066151
347,Sagarpur,19.153682,81.158363
348,Arjunkheda,24.895254,77.877581
349,Girishpur,13.797494,75.756023
350,Seemaabad,20.406455,73.880812
351,Chiragpur,14.816954,79.473099
352,Narayanpur,25.907112,77.69576
353,Rameshkheda,27.753925,75.389891
354,Chetanpur,25.508261,81.317568
355,Varunganj,12.092281,75.923363
356,Amritapur,20.422569,77.689012
357,Swatinagar,9.469186,77.704072
358,Anilkheda,27.861235,71.985993
359,Sonalpur,21.487656,75.454701
360,Sahilkot,16.654003,78.413021
361,Dilipnagar,23.593154,77.008851
362,Amritapura,17.128005,82.096912
363,Sandeeppatti,25.771127,85.653887
364,Nilimanagar,26.426706,70.858152
365,Adityakheda,25.687553,73.441548
366,Ravipatti,17.528808,80.775769
367,Govindgarh,21.489156,85.178255
368,Namitapura,25.057303,84.18163
369,Bimalkot,27.654592,80.795769
370,Kalyanabad,17.489005,78.760113
371,Deepakkheda,26.806209,82.203497
372,Indiraabad,17.342505,77.290425
373,Kailashkheda,27.26558,77.660806
374,Rashminagar,19.571206,83.0087
375,Veenawadi,23.127042,88.388877
376,Nilimakheda,27.206015,71.006636
377,Avanigarh,26.265916,78.022042
378,Salilnagar,22.547467,72.337206
379,Yashganj,23.496852,69.972254
380,Sangeetapatti,26.838486,77.852829
381,Akashkheda,30.905692,77.593793
382,Arunpatti,28.899656,76.387733
383,Anilkot,27.584958,81.04099
384,Mohankot,21.6316,84.818045
385,Bharatwadi,27.642789,96.665516
386,Silpapatti,22.966522,72.880661
387,Sameerpur,19.799116,82.969883
388,Simranpur,24.35944,74.577122
389,Mohangarh,20.901081,77.651933
390,Mohanpura,30.861872,79.374592
391,Aaravabad,11.17495,76.346513
392,Shantanunagar,34.155374,74.327807
393,Sumanganj,12.02263,78.724317
394,Shantanukot,23.460105,87.880965
395,Bimalpur,25.801634,88.001747
396,Pranavpura,16.287958,74.029908
397,Shivkot,30.022246,78.130294
398,Jaipura,23.770009,77.41042
399,Ranikheda,34.632799,78.195657
400,Ramannagar,16.007288,80.4799
401,Simrangarh,26.582271,77.68979
402,Ushapur,23.987892,85.01199
403,Nirajpura,17.27408,81.719684
404,Govindpur,33.93562,76.083885
405,Sahilwadi,25.456918,87.687701
406,Aaryapura,27.382537,78.225618
407,Pallavipur,16.377483,73.922221
408,Rashmiwadi,25.426646,87.810115
409,Siddharthkot,27.031231,76.13464
410,Ashokabad,25.374345,90.905775
411,Richakheda,34.156969,77.585971
412,Shivgarh,25.179485,82.061535
413,Alokwadi,24.814525,87.402926
414,Pallavipura,19.562096,76.239824
415,Bhuvanganj,20.789541,86.420118
416,Nirajabad,26.388908,71.982571
417,Preetipur,11.273967,79.769023
418,Arunkot,26.536657,78.992256
419,Madhavkheda,23.009275,83.35488
420,Seemakot,22.774345,84.604896
421,Govindabad,24.186342,83.739549
422,Kalyanwadi,19.602194,76.603192
423,Avaninagar,27.861023,96.22107
424,Parvatipur,16.467317,79.64512
425,Santoshpur,22.354179,72.058875
426,Laxmannagar,26.060837,82.592656
427,Ektapura,24.047626,81.006837
428,Sagarpatti,12.610751,77.943254
429,Manishpura,31.768025,78.470791
430,Ishaanpura,24.931334,72.560507
431,Harshaabad,23.588348,68.976458
432,Vineetnagar,20.382422,75.251528
433,Mohanwadi,16.448537,73.521895
434,Rameshgarh,26.377674,87.382804
435,Ektaabad,25.734457,78.408661
436,Kamalpura,14.354865,75.529285
437,Nirajwadi,30.290542,79.619369
438,Maheshkheda,18.67317,73.147834
439,Kalyanpura,18.00598,81.299267
440,Chetannagar,25.068257,83.976756
441,Bimalkheda,24.328078,77.445882
442,Narayanabad,26.258924,76.594504
443,Udaypatti,31.079714,77.397975
444,Kirankot,24.283251,75.773431
445,Sangeetawadi,21.260478,77.288018
446,Bimalabad,22.024355,80.596084
447,Darshanpatti,27.70004,93.549147
448,Siddharthnagar,22.556334,79.479412
449,Yashpura,19.3242,80.827571
450,Trishawadi,20.575714,83.892441
451,Bharatabad,29.976021,76.595107
452,Govindnagar,21.537059,69.780701
453,Govindganj,27.414664,73.79695
454,Sonalpura,11.825064,77.786093
455,Udaypur,24.674044,94.056321
456,Richapatti,26.16044,83.90796
457,Jayantnagar,31.842824,75.636409
458,Sanjayabad,27.032283,92.369649
459,Vipinnagar,27.435757,76.415057
460,Paragkot,24.294275,69.941222
461,Sonalgarh,27.094887,83.788286
462,Indiranagar,30.851425,75.492761
463,Sameernagar,25.111544,84.326037
464,Jyotinagar,23.183709,73.76873
465,Arjunpura,23.685309,71.443104
466,Swatiwadi,27.19452,94.652714
467,Shivabad,21.026073,71.247258
468,Manishabad,10.855503,76.260981
469,Ektapur,24.312666,72.683057
470,Hemantabad,29.155614,73.752542
471,Ushaabad,20.826496,75.932347
472,Vinayabad,29.581757,75.445311
473,Haripura,24.970434,73.126724
474,Ishaanabad,21.426206,79.203265
475,Ektawadi,16.79922,80.212972
476,Yogeshwadi,26.252319,72.679986
477,Varunpura,33.301418,74.794098
478,Lalitabad,26.139418,82.658241
479,Tarunpatti,25.607341,81.556268
480,Abhinavgarh,21.128346,78.485379
481,Aaravpur,20.599919,86.358493
482,Swatikot,22.17853,85.479326
483,Tanvipura,19.76744,76.754082
484,Salilpatti,23.177846,74.760591
485,Swatigarh,26.122391,77.261908
486,Sanjaywadi,15.307359,78.422533
487,Trishakot,15.289143,75.010219
488,Vishalpatti,26.310979,72.524786
489,Varunabad,23.263523,68.79986
490,Shaileshkheda,34.242666,74.186013
491,Deepakpura,13.032672,77.679029
492,Raviganj,20.223439,75.926317
493,Darshanpur,27.143106,77.964452
494,Meerakot,20.391277,76.306416
495,Meeragarh,26.539258,79.765538
496,Omkargarh,9.931748,76.651891
497,Amritaabad,24.307868,78.097519
498,Laxmanpatti,33.406514,74.830391
499,Ramanpura,25.6764,71.642435
500,Lalitpura,29.693168,74.49676
501,Richawadi,19.308293,84.146495
502,Salilpura,19.97262,83.010977
503,Tanviabad,26.892473,83.318715
504,Shivwadi,29.912203,80.189793
505,Udaynagar,31.045685,77.718081
506,Aaravganj,18.729743,80.645834
507,Bhaveshkot,21.883759,76.100916
508,Tanvikheda,29.580561,75.88115
509,Shrutipura,23.28228,83.373384
510,Vedabad,11.737223,78.662793
511,Parvatipura,20.078153,76.155746
512,Ravikot,21.911615,74.35291
513,Sakshipatti,25.432419,90.579321
514,Vishalkheda,28.130423,78.672742
515,Sahilkheda,26.168636,91.346207
516,Rashmipura,28.628554,74.562446
517,Gauravpur,27.853129,78.585263
518,Rajpura,21.340599,72.484735
519,Rakeshnagar,16.544738,78.873823
520,Silpanagar,25.343051,86.453987
521,Paragpura,20.734183,80.128959
522,Hariganj,12.047858,77.069054
523,Yogeshganj,20.906701,72.766377
524,Rashmiabad,14.168173,79.852833
525,Meerapura,18.818457,77.235069
526,Ushakheda,27.132508,84.470603
527,Seemapatti,24.929237,72.868041
528,Priyaganj,25.22821,82.975437
529,Sahilpura,12.463307,76.733747
530,Akashabad,25.195427,93.150179
531,Hemantganj,33.980624,77.317793
532,Bimalnagar,26.249636,76.043278
533,Jayantgarh,24.283943,77.492575
534,Sumankheda,27.904281,77.705986
535,Ektakheda,24.822737,84.980667
536,Nishapur,10.965222,76.528209
537,Siddharthgarh,21.173858,70.787839
538,Shankarpatti,19.02033,79.946687
539,Ushapura,16.193622,76.541105
540,Alokabad,26.096443,81.603577
541,Kirangarh,24.642182,94.149005
542,Maheshpur,24.156654,87.34764
543,Swatiganj,23.293857,91.402838
544,Souravnagar,14.948302,74.973486
545,Vinaypura,12.712904,76.579669
546,Rakeshpatti,17.273808,80.908595
547,Sangeetanagar,17.156193,76.053163
548,Sunilpura,24.081367,93.935282
549,Shankarpura,26.470596,90.307923
550,Prakashkheda,28.951984,95.279437
551,Ishaankot,17.84231,80.27086
552,Nishawadi,11.611798,77.218873
553,Chiragpura,28.05109,75.403228
554,Jayantganj,19.209119,80.786682
555,Arunnagar,27.088477,77.521069
556,Jyotigarh,26.238193,81.064129
557,Amritanagar,20.177824,83.920011
558,Richapur,27.016533,69.596999
559,Parvatiabad,20.33044,74.01189
560,Hemantwadi,32.680063,78.744057
561,Omkarganj,28.744501,80.132891
562,Arjungarh,22.790665,70.733791
563,Divyawadi,10.608249,77.563913
564,Richagarh,23.732272,72.077015
565,Nirajganj,24.773147,76.680185
566,Namitaabad,24.537904,84.289688
567,Jaganpur,26.590012,77.738328
568,Ashokwadi,11.121809,77.530023
569,Vinaypatti,16.71846,79.300446
570,Anandnagar,23.343215,84.242249
571,Tarunpura,25.356482,87.375036
572,Saritapur,19.483827,76.854999
573,Silpawadi,19.291958,83.887125
574,Bhuvankheda,32.753187,76.004213
575,Vikramganj,19.256139,81.882522
576,Raniwadi,22.282543,86.58187
577,Kalyanganj,13.22564,76.751919
578,Jaikot,27.319459,80.070798
579,Paragpatti,22.454023,75.177868
580,Raviabad,26.105021,77.737848
581,Anilpur,20.969802,83.17085
582,Priyapura,25.641266,73.575058
583,Nishapatti,13.84161,77.093775
584,Rakeshpura,25.253859,86.883077
585,Preetipura,22.5574,70.844251
586,Arunpura,14.578703,77.029562
587,Ushaganj,26.067483,78.810999
588,Sameerganj,26.496731,77.848986
589,Sameerwadi,27.088185,70.948009
590,Souravganj,18.541963,83.656811
591,Chetanabad,19.7855,82.854069
592,Govindkot,23.740544,71.73202
593,Ramanpur,15.704589,74.513623
594,Abhinavkheda,22.800658,69.643676
595,Seemapur,23.237844,71.896267
596,Nilimaganj,29.223371,80.117204
597,Sumanpura,16.856928,75.639833
598,Sandeeppur,20.161713,73.213447
599,Sandeepkheda,24.927308,87.026408
600,Ektanagar,19.519302,76.231561
601,Sakshiwadi,27.394018,78.125655
602,Abhinavnagar,19.755514,78.905645
603,Shivkheda,25.235199,75.612134
604,Ranipur,29.952222,80.238361
605,Alokpur,23.585534,74.204813
606,Neelwadi,19.839742,81.346204
607,Arjunkot,26.542523,80.394133
608,Abhinavpur,25.725832,84.781942
609,Santoshpura,21.22176,71.023867
610,Dilippatti,26.192114,74.02908
611,Swatipur,27.704228,78.237472
612,Aaryaabad,27.20323,72.291952
613,Anilwadi,19.928048,75.227825
614,Parvatikot,27.829423,72.238333
615,Lakshmipura,13.298888,76.269833
616,Varunwadi,11.127968,76.01051
617,Anandpatti,24.614603,71.707247
618,Bharatpura,25.983282,73.986471
619,Bhaveshganj,27.175949,94.215884
620,Meerapatti,26.564783,83.630498
621,Tarunganj,21.926824,79.420488
622,Yashpatti,26.502451,75.944924
623,Kalyanpatti,28.5436,74.476517
624,Manishkot,23.326539,75.735047
625,Arungarh,29.072227,78.185351
626,Aaravwadi,28.431841,93.927838
627,Bimalwadi,17.234686,74.3138
628,Santoshabad,33.797088,75.13283
629,Avanipur,17.528509,81.354126
630,Umakheda,22.656379,88.814002
631,Umapura,14.437981,78.227987
632,Sonalpatti,12.026176,75.888898
633,Rakeshkot,15.081833,75.078578
634,Kailashpatti,27.50535,71.365652
635,Shrutiwadi,24.576334,79.069311
636,Kailashpur,32.671342,77.725095
637,Nirajgarh,22.015519,77.3695
638,Adityawadi,17.53065,74.407685
639,Omkarpatti,10.979118,78.041735
640,Anandabad,28.916294,75.992724
641,Shantanugarh,22.467668,86.141348
642,Ramanwadi,24.328226,69.005729
643,Sakshiabad,27.844625,77.561659
644,Pallavipatti,23.313756,86.773426
645,Vinaypur,23.319154,73.420805
646,Indirapatti,32.712379,79.150147
647,Ashokpur,17.110601,76.314985
648,Sarveshnagar,23.393806,85.03754
649,Bhaveshpura,25.107613,82.605863
650,Nikhilgarh,27.698756,78.888523
651,Rameshpura,16.825106,74.730519
652,Jaiganj,22.541404,77.492712
653,Veenanagar,21.731704,74.520856
654,Vipinpur,26.804197,77.598025
655,Sarveshwadi,30.34038,79.699751
656,Santoshkheda,22.502839,78.559581
657,Sagarkot,21.092217,77.26339
658,Veenagarh,27.669942,75.862592
659,Vineetganj,24.485065,84.257131
660,Namitaganj,23.909038,72.98755
661,Simranabad,24.51524,72.911686
662,Maheshpatti,28.635082,93.787587
663,Anilpura,24.574107,83.459919
664,Akashpur,19.714831,78.834321
665,Trishapatti,30.579586,79.064817
666,Shivpura,26.446719,89.070591
667,Harshapatti,22.580763,76.852705
668,Sarveshpatti,25.512145,73.968803
669,Akashpura,26.755078,90.921409
670,Rahulpur,26.772873,77.028844
671,Silpapur,27.760013,74.711167
672,Anilpatti,23.398151,85.839133
673,Darshanabad,20.283238,85.399666
674,Madhuripatti,21.521738,84.417646
675,Rajabad,25.249043,72.925404
676,Shrutipur,22.408242,73.665634
677,Ashokpura,23.699429,93.262743
678,Lalitwadi,25.407367,77.360393
679,Bharatkot,15.085242,78.811387
680,Raviwadi,25.900041,72.042821
681,Avanikot,26.285555,81.469063
682,Bhaveshgarh,15.454671,79.36872
683,Vipingarh,25.791678,94.932304
684,Abhinavganj,22.78043,77.169908
685,Rajgarh,26.177422,76.022923
686,Anandkot,22.763517,93.076733
687,Udaykot,28.528648,74.20818
688,Chetanpatti,21.627235,76.223044
689,Prakashpura,21.420221,81.964033
690,Ashokkheda,19.401551,77.172619
691,Pranavgarh,26.098185,71.107532
692,Navinabad,18.514801,81.606467
693,Madhuripura,30.014826,76.550711
694,Nikhilnagar,26.344519,82.858455
695,Adityaabad,25.196507,93.316551
696,Sangeetapur,12.382828,79.251327
697,Sagarganj,34.469061,75.779572
698,Varunkot,33.30458,78.894316
699,Vikramkot,25.044737,92.195479
700,Paraggarh,27.541197,76.722608
701,Divyapatti,29.197431,74.152724
702,Darshanwadi,19.524761,84.332175
703,Prakashwadi,22.063617,86.794794
704,Amanabad,20.81666,79.814495
705,Sakshiganj,26.671475,82.707571
706,Aaravgarh,28.533222,79.666479
707,Ramankot,20.527074,83.021973
708,Narayankot,30.626287,76.37658
709,Rahulwadi,14.685068,77.275033
710,Alokpatti,31.474774,74.998221
711,Devnagar,24.128426,87.501281
712,Siddharthwadi,25.256742,78.526921
713,Vinaykot,25.119238,73.346759
714,Vikramwadi,17.797797,83.062376
715,Salilganj,26.055236,80.618391
716,Amanganj,25.234757,72.834527
717,Vipinkheda,33.264581,76.350393
718,Umapatti,27.181768,75.518413
719,Divyapura,21.134528,71.766987
720,Ashokganj,26.775757,89.430598
721,Ashokgarh,34.493643,75.645035
722,Saritaganj,21.36199,75.08162
723,Govindwadi,27.870036,74.003362
724,Madhuriganj,23.930386,85.469211
725,Vipinpura,22.688629,80.501633
726,Girishwadi,20.363823,83.666062
727,Dilipkheda,31.426463,75.534165
728,Lalitganj,28.160219,79.680549
729,Anilnagar,23.26515,80.353496
730,Gauravabad,22.095588,70.479293
731,Sumanwadi,18.673207,73.794837
732,Hariabad,25.310245,94.679687
733,Govindpura,24.786204,87.861429
734,Sonalganj,28.325908,73.558862
735,Meerakheda,27.200165,71.28662
736,Lakshmiwadi,23.077797,73.864553
737,Laxmanabad,18.10357,82.324636
738,Pranavabad,25.600402,79.926286
739,Sakshigarh,19.532146,80.043287
740,Tanvikot,27.794237,73.388394
741,Girishpura,10.133807,77.769488
742,Richaabad,24.728506,94.505487
743,Adityapur,23.170049,72.597758
744,Mohannagar,25.782342,75.677905
745,Tanvipatti,21.852584,78.010986
746,Lakshmikheda,24.82691,87.675196
747,Umaganj,32.415892,76.743405
748,Neelganj,19.319186,75.143046
749,Abhinavabad,25.649662,82.371799
750,Souravkheda,26.298733,91.036087
751,Arjunwadi,28.193979,73.058034
752,Deepaknagar,22.787533,79.53678
753,Aaryakheda,20.596317,75.164928
754,Tanviwadi,34.532569,77.419125
755,Omkarpura,23.142175,76.028302
756,Bhuvangarh,21.100174,78.064418
757,Ramanganj,22.614317,74.427721
758,Maheshnagar,25.710539,91.402807
759,Aaryapur,24.455363,73.511251
760,Rakeshkheda,21.085744,85.589379
761,Preetinagar,23.31658,69.616892
762,Omkarkheda,18.977349,79.954839
763,Rameshpur,27.161998,94.26527
764,Vinayganj,16.103662,74.897343
765,Tarungarh,30.674171,79.973166
766,Ilaabad,17.97929,74.768411
767,Rashmigarh,20.026655,78.089148
768,Tarunkheda,17.467614,79.162407
769,Shantanukheda,26.669918,78.925235
770,Meeraganj,21.886171,72.736776
771,Arjunganj,26.027161,93.203686
772,Anandganj,13.634484,78.167114
773,Shrutigarh,21.66321,78.702659
774,Yogeshkheda,23.660143,72.369981
775,Sandeepabad,17.454066,78.122176
776,Tarunkot,16.74781,79.99424
777,Vedgarh,25.319622,93.164781
778,Aaryawadi,28.723169,75.098099
779,Gauravkheda,17.754505,76.899269
780,Priyanagar,21.548229,76.605597
781,Gauravkot,27.595283,71.093765
782,Gauravgarh,27.847796,72.234517
783,Priyawadi,33.878996,77.15276
784,Namitanagar,23.726336,75.078085
785,Bharatnagar,29.622542,77.860308
786,Vinaynagar,22.315456,83.7006
787,Laxmankheda,24.949247,79.115321
788,Shrutinagar,24.747506,87.284454
789,Kamalabad,26.566469,90.084782
790,Sagargarh,22.447684,87.692327
791,Amanpura,17.630891,78.021417
792,Arunabad,26.5046,91.888422
793,Madhavwadi,24.20588,73.086408
794,Neelabad,25.31119,85.187927
795,Bhuvanpura,19.911348,85.546207
796,Varunpur,16.171082,78.575734
797,Aaravkheda,22.913258,75.605422
798,Rakeshwadi,22.529615,82.995102
799,Madhuriwadi,28.362654,72.753037
800,Salilkot,23.761544,68.412872
801,Lakshmipatti,17.763648,79.642636
802,Anandpur,19.583207,81.730079
803,Jayantkheda,18.056461,82.246134
804,Satishwadi,24.787397,75.254326
805,Indirakheda,25.216214,73.130405
806,Saritapura,26.318044,83.296542
807,Narayanpura,25.679398,83.301264
808,Salilkheda,18.350825,77.073699
809,Aaryanagar,18.262769,79.459301
810,Raniganj,27.383872,75.356584
811,Hemantpura,26.19841,92.485694
812,Chetankot,17.669541,73.794963
813,Aaravnagar,21.83826,85.048639
814,Vineetpatti,26.166263,92.617665
815,Santoshnagar,24.434411,83.819703
816,Maheshgarh,26.886354,69.949621
817,Harigarh,17.037899,81.168013
818,Maheshpura,17.018677,77.938415
819,Jyotiabad,22.379974,86.485904
820,Kailashgarh,25.618506,81.921586
821,Nilimawadi,28.464321,79.40679
822,Nishakot,34.489734,77.556936
823,Narayanganj,20.316066,84.078326
824,Bhuvanpur,28.704505,77.284939
825,Avaniwadi,13.722016,75.024776
826,Rohitpatti,21.407529,80.40927
827,Shaileshnagar,17.692914,75.478204
828,Rahulpatti,16.412775,77.882533
829,Preetikot,28.980351,76.902092
830,Mohankheda,9.212438,78.184828
831,Navinpatti,27.907966,77.050307
832,Navinpura,31.100594,78.539171
833,Shaileshgarh,26.872968,81.932255
834,Vipinabad,21.899738,72.29612
835,Sandeeppura,20.815354,73.710193
836,Aaryapatti,23.81982,74.804566
837,Navinwadi,24.42675,87.428296
838,Darshannagar,28.845641,95.075484
839,Vikramnagar,27.310431,83.06986
840,Haripur,27.922764,78.093993
841,Girishkot,22.26021,77.840333
842,Manishpatti,26.793601,92.400425
843,Amritagarh,30.352094,80.624787
844,Mohanpatti,28.318662,94.81532
845,Darshankheda,21.633889,85.150462
846,Ravipur,24.789785,93.523172
847,Bhuvanpatti,27.374649,75.78021
848,Aaravpatti,21.313512,85.034576
849,Divyakot,22.601483,88.770494
850,Avanipura,25.601747,92.561772
851,Abhinavpura,24.140184,84.303458
852,Seemapura,19.733873,73.212433
853,Madhurinagar,27.625059,95.055913
854,Divyaganj,21.615794,74.708177
855,Shaileshkot,22.329036,74.62189
856,Lalitgarh,18.962145,77.119776
857,Yashwadi,18.404518,74.033134
858,Preetikheda,33.028427,75.53286
859,Salilpur,14.696123,78.852849
860,Yashkheda,26.217461,90.436452
861,Avaniganj,27.681675,73.525042
862,Trishapura,23.234645,85.489131
863,Ushakot,24.942613,87.841886
864,Devpatti,12.844795,75.696868
865,Priyakot,34.038376,75.233393
866,Jaikheda,24.35908,87.649696
867,Vaibhavkot,25.868735,82.806111
868,Girishnagar,26.970705,84.639954
869,Alokpura,34.807425,77.34208
870,Sangeetakot,28.27082,93.369214
871,Udayabad,17.019769,78.298166
872,Ilakheda,13.048829,77.536676
873,Arunwadi,23.309857,92.450994
874,Nikhilkheda,25.261608,93.23489
875,Omkarwadi,17.542551,75.702381
876,Kamalgarh,18.325213,75.952856
877,Adityakot,26.690734,82.655545
878,Satishabad,21.359363,71.952325
879,Vikramgarh,18.999943,78.689515
880,Rameshnagar,22.310776,80.5769
881,Nilimapatti,27.220756,81.387666
882,Rameshganj,11.821295,76.412185
883,Vishalabad,25.202049,71.13585
884,Madhurikheda,29.844375,77.504138
885,Neelpatti,18.655943,78.227046
886,Sumankot,25.594104,71.906716
887,Sakshikheda,8.073588,77.432972
888,Manishkheda,19.353804,80.488637
889,Anandkheda,25.872738,86.080287
890,Ishaanpur,28.414762,80.656563
891,Girishganj,18.325577,77.726728
892,Akashgarh,25.534239,83.386166
893,Jayantwadi,17.257266,80.625955
894,Udaykheda,22.625259,87.756464
895,Hemantgarh,9.958572,76.783424
896,Santoshpatti,22.164423,70.484585
897,Shrutikot,19.272059,84.13563
898,Vishalpura,18.614897,81.446498
899,Nirajpatti,21.995491,88.90226
900,Gauravganj,23.410317,73.127117
901,Shivganj,19.465665,73.58545
902,Rajkheda,29.002521,73.845652
903,Sanjayganj,28.487709,76.192371
904,Yogeshgarh,12.951573,77.492953
905,Gauravnagar,20.153972,73.699722
906,Vineetpur,8.462442,77.226881
907,Yogeshkot,26.206482,87.100015
908,Pallavigarh,22.738664,73.10222
909,Divyakheda,10.863203,76.069979
910,Bhaveshwadi,23.344153,86.837478
911,Kiranganj,16.692775,76.012386
912,Laxmangarh,15.00807,76.761392
913,Govindpatti,24.97498,72.200496
914,Udaywadi,24.73434,81.368935
915,Chiragkot,13.287922,79.422628
916,Nishapura,15.496279,79.262133
917,Sakshipur,30.299029,77.987812
918,Sarveshpur,25.40171,83.938197
919,Souravwadi,18.457629,84.016202
920,Nikhilpatti,26.123594,71.434624
921,Adityapura,24.469296,73.222075
922,Kalyangarh,19.241192,75.519534
923,Deepakkot,18.587604,82.59506
924,Raniabad,24.918056,85.220507
925,Ilapur,26.150068,83.50942
926,Silpakheda,26.235678,83.213851
927,Umagarh,14.337833,79.13019
928,Abhinavwadi,22.375454,72.174948
929,Alokgarh,10.397599,77.958088
930,Laxmanwadi,9.252828,77.684016
931,Vikramkheda,15.332061,78.891911
932,Prakashgarh,32.937508,76.923941
933,Vaibhavkheda,30.134316,74.628617
934,Kalyanpur,16.918938,73.429152
935,Jyotikheda,12.391992,79.516361
936,Rakeshgarh,21.501327,75.079918
937,Laxmankot,24.910604,71.454245
938,Nikhilkot,19.597474,78.524116
939,Ranipura,14.441312,79.202786
940,Ravikheda,24.100686,82.107357
941,Sunilwadi,27.354678,79.299184
942,Kiranabad,30.075695,75.266994
943,Akashpatti,25.824618,73.022801
944,Vishalwadi,28.559213,93.417726
945,Rameshpatti,23.230107,78.769449
946,Simranpatti,19.936321,77.556822
947,Sameerabad,24.866557,77.616081
948,Indirakot,24.538967,80.23739
949,Bhuvanwadi,25.031453,76.250678
950,Vishalganj,19.086838,83.843839
951,Sanjaypur,20.083162,74.175753
952,Amanwadi,20.955985,75.045921
953,Madhavnagar,24.928326,86.040502
954,Rajpur,16.064744,77.174125
955,Saritaabad,23.272093,69.636122
956,Bimalpura,28.318977,76.959297
957,Vikrampatti,25.871562,72.589558
958,Lakshmikot,31.331065,76.315538
959,Tanvinagar,24.914816,80.861831
960,Simranpura,17.442869,77.718727
961,Meeraabad,17.293833,77.751319
962,Umaabad,28.625319,72.624255
963,Rajnagar,32.772141,76.010186
964,Shivnagar,30.390064,73.859529
965,Vedpatti,15.376322,77.335857
966,Rahulganj,24.117876,69.023347
967,Rohitnagar,25.033136,77.800874
968,Ilakot,23.495774,88.518071
969,Aaryakot,20.992697,78.077395
970,Ektapatti,30.707288,76.882078
971,Vedkot,20.712711,74.869555
972,Siddharthpatti,24.569701,74.154972
973,Udaygarh,20.3547,75.971495
974,Harshakheda,26.733423,95.257993
975,Shantanupura,26.561828,76.984425
976,Aaravpura,24.017183,70.873676
977,Dilipganj,15.814197,75.769299
978,Bharatpatti,34.3256,77.135515
979,Lakshmiganj,24.812369,71.252345
980,Satishnagar,27.650858,94.770163
981,Satishkheda,25.563564,71.520627
982,Simrankheda,13.629612,76.087417
983,Kailashkot,16.161893,73.984654
984,Trishakheda,29.74328,74.500705
985,Simrannagar,30.901421,77.745669
986,Amritakot,26.650201,82.287163
987,Paragkheda,16.663752,74.737141
988,Sagarabad,27.953814,95.305807
989,Bhaveshpur,16.390605,77.62661
990,Chiragnagar,29.131523,94.916747
991,Paragnagar,21.131979,70.593461
992,Tarunwadi,19.67341,79.03394
993,Kalyankot,25.178776,86.356119
994,Mohanabad,30.30964,78.204964
995,Ushagarh,27.456212,88.698115
996,Kalyannagar,27.672478,73.966548
997,Ushapatti,11.858255,75.601057
998,Navinpur,34.517039,78.178287
999,Vedwadi,14.600509,76.433492